      2.10          N: GNSS NAV DATA                        RINEX VERSION / TYPE
fic2rin                                 08/04/2019 00:18:52 PGM / RUN BY / DATE
                                                            END OF HEADER
 8 19  8  3 22  0  0.0-1.301057636738e-06-1.477928890381e-12 0.000000000000e+00
    9.200000000000e+01 8.596875000000e+01 4.086241636937e-09 6.795086008550e-01
    4.589557647705e-06 4.402448190376e-03 1.028180122375e-05 5.153781250000e+03
    5.976000000000e+05 1.247972249985e-07 1.106270082784e+00-1.490116119385e-08
    9.702460960158e-01 1.859375000000e+02-2.052775514111e-01-7.934973380634e-09
    3.225134339791e-10 1.000000000000e+00 2.064000000000e+03 0.000000000000e+00
    2.400000000000e+00 0.000000000000e+00 5.122274160385e-09 9.200000000000e+01
    5.904000000000e+05 4.000000000000e+00
 4 19  8  3 22  0  0.0 5.445582792163e-05 4.081357474206e-11 0.000000000000e+00
    3.000000000000e+00 8.393750000000e+01 4.337323524077e-09 6.686388488862e-01
    4.421919584274e-06 1.463828166015e-02 1.101382076740e-05 5.153678981781e+03
    5.976000000000e+05-1.490116119385e-07 1.015607371826e+00 2.160668373108e-07
    9.588763903305e-01 1.689687500000e+02 6.726654167918e-01-8.142839181937e-09
    1.135761594744e-10 1.000000000000e+00 2.064000000000e+03 0.000000000000e+00
    2.400000000000e+00 6.300000000000e+01-5.587935447693e-09 3.000000000000e+00
    5.904000000000e+05 4.000000000000e+00
18 19  8  3 22  0  0.0 7.507717236876e-05 2.955857780762e-12 0.000000000000e+00
    1.000000000000e+01 2.334375000000e+01 5.015208903581e-09-1.894359253267e+00
    1.545995473862e-06 1.565875636879e-02 1.203268766403e-06 5.153682029724e+03
    5.976000000000e+05 2.440065145493e-07 2.117444768942e+00 1.583248376846e-07
    9.548430110783e-01 3.488750000000e+02 1.415978020802e+00-8.462138196308e-09
    2.942979729776e-10 1.000000000000e+00 2.064000000000e+03 0.000000000000e+00
    2.400000000000e+00 0.000000000000e+00-5.587935447693e-09 1.000000000000e+01
    5.904000000000e+05 4.000000000000e+00
28 19  8  3 22  0  0.0 7.654307410121e-04-5.684341886081e-13 0.000000000000e+00
    7.000000000000e+00-2.250000000000e+01 3.820159124961e-09 1.366041154172e+00
   -1.415610313416e-06 1.899139606394e-02 1.084618270397e-05 5.153708742142e+03
    5.976000000000e+05 0.000000000000e+00 1.643701838208e-01-4.433095455170e-07
    9.816232333250e-01 1.825000000000e+02-1.462192950274e+00-7.778538293057e-09
   -4.535903224290e-10 1.000000000000e+00 2.064000000000e+03 0.000000000000e+00
    2.400000000000e+00 0.000000000000e+00-1.117587089539e-08 7.000000000000e+00
    5.904000000000e+05 4.000000000000e+00
16 19  8  3 22  0  0.0-6.187194958329e-05-3.296918293927e-12 0.000000000000e+00
    4.200000000000e+01-3.087500000000e+01 3.856232056115e-09 1.483313395557e+00
   -1.484528183937e-06 1.074732595589e-02 1.109391450882e-05 5.153616201401e+03
    5.976000000000e+05-1.359730958939e-07 1.604531021672e-01-2.235174179077e-08
    9.826607187347e-01 1.810937500000e+02 5.834582712875e-01-7.783181343601e-09
   -6.635990701363e-10 1.000000000000e+00 2.064000000000e+03 0.000000000000e+00
    2.400000000000e+00 0.000000000000e+00-1.071020960808e-08 4.200000000000e+01
    5.904000000000e+05 4.000000000000e+00
10 19  8  3 22  0  0.0-1.193024218082e-06-1.375610736432e-11 0.000000000000e+00
    4.000000000000e+01-1.250937500000e+02 4.499830293136e-09 2.632224576479e+00
   -6.387010216713e-06 4.688375047408e-03 8.789822459221e-06 5.153670158386e+03
    5.976000000000e+05 0.000000000000e+00-3.070351613795e+00-6.332993507385e-08
    9.638625271660e-01 2.135937500000e+02-2.714353667885e+00-8.072479108300e-09
   -3.214419607765e-10 1.000000000000e+00 2.064000000000e+03 0.000000000000e+00
    2.400000000000e+00 0.000000000000e+00 1.862645149231e-09 4.000000000000e+01
    5.904000000000e+05 4.000000000000e+00
27 19  8  3 22  0  0.0-1.326669007540e-05-1.125499693444e-11 0.000000000000e+00
    4.500000000000e+01 8.575000000000e+01 3.960164956766e-09 5.355476983398e-01
    4.509463906288e-06 7.149721146561e-03 1.030042767525e-05 5.153651092529e+03
    5.976000000000e+05 1.303851604462e-08 1.118162266735e+00 1.359730958939e-07
    9.785518543725e-01 1.928125000000e+02 5.169340202397e-01-7.887828559721e-09
    2.932264997750e-10 1.000000000000e+00 2.064000000000e+03 0.000000000000e+00
    2.400000000000e+00 0.000000000000e+00 1.396983861923e-09 4.500000000000e+01
    5.904000000000e+05 4.000000000000e+00
25 19  8  3 22  0  0.0-5.255453288555e-06-2.273736754432e-12 0.000000000000e+00
    7.000000000000e+01-3.231250000000e+01 4.110885520597e-09 2.945196612426e+00
   -1.672655344009e-06 8.385618333705e-03 1.054257154465e-05 5.153679273605e+03
    5.976000000000e+05 9.685754776001e-08 7.642973811966e-02-7.450580596924e-08
    9.697159769285e-01 1.781250000000e+02 9.041531600312e-01-7.744251150574e-09
   -5.664521664350e-10 1.000000000000e+00 2.064000000000e+03 0.000000000000e+00
    2.400000000000e+00 0.000000000000e+00 5.587935447693e-09 7.000000000000e+01
    5.904000000000e+05 4.000000000000e+00
30 19  8  3 22  0  0.0-1.233769580722e-05-7.730704965070e-12 0.000000000000e+00
    8.900000000000e+01 1.037500000000e+01 5.453798601174e-09-2.289680153340e+00
    4.693865776062e-07 4.186763428152e-03 4.133209586143e-06 5.153765913010e+03
    5.976000000000e+05 3.725290298462e-09-9.323141560440e-01-6.332993507385e-08
    9.401043908471e-01 2.889062500000e+02-2.915450215518e+00-8.627502227241e-09
   -5.643092200298e-11 1.000000000000e+00 2.064000000000e+03 0.000000000000e+00
    2.400000000000e+00 0.000000000000e+00 3.725290298462e-09 8.900000000000e+01
    5.904000000000e+05 4.000000000000e+00
15 19  8  3 22  0  0.0-2.965577878058e-04 2.501110429876e-12 0.000000000000e+00
    5.300000000000e+01 1.668750000000e+01 5.289148885710e-09-3.319347297281e-01
    8.903443813324e-07 1.154150697403e-02 1.212023198605e-05 5.153737598419e+03
    5.976000000000e+05-1.303851604462e-08-2.117338770287e+00 1.732259988785e-07
    9.279925863190e-01 1.262812500000e+02 7.926056155253e-01-8.552141945325e-09
    3.103700710164e-10 1.000000000000e+00 2.064000000000e+03 0.000000000000e+00
    2.400000000000e+00 0.000000000000e+00-1.071020960808e-08 5.300000000000e+01
    5.904000000000e+05 4.000000000000e+00
13 19  8  3 22  0  0.0-5.145464092493e-05 1.818989403546e-12 0.000000000000e+00
    5.400000000000e+01 4.562500000000e+01 4.441613582462e-09-3.708390552552e-01
    2.386048436165e-06 3.605105914176e-03 1.083873212337e-05 5.153671190262e+03
    5.976000000000e+05-3.352761268616e-08-1.897237992241e+00 5.029141902924e-08
    9.676906926587e-01 1.702812500000e+02 1.231803050981e+00-8.055692694793e-09
    4.371610666560e-10 1.000000000000e+00 2.064000000000e+03 0.000000000000e+00
    2.400000000000e+00 0.000000000000e+00-1.117587089539e-08 5.400000000000e+01
    5.904000000000e+05 4.000000000000e+00
14 19  8  3 22  0  0.0-6.834603846073e-05 1.818989403546e-12 0.000000000000e+00
    4.500000000000e+01 2.371875000000e+01 4.624121184637e-09 2.963745793394e-01
    1.380220055580e-06 1.078480714932e-02 1.124292612076e-05 5.153731988907e+03
    5.976000000000e+05-6.891787052155e-08-1.942131968129e+00 6.519258022308e-08
    9.603000831873e-01 1.655937500000e+02-1.930301231126e+00-8.210699151434e-09
    3.650152043484e-10 1.000000000000e+00 2.064000000000e+03 0.000000000000e+00
    2.400000000000e+00 0.000000000000e+00-9.778887033463e-09 4.500000000000e+01
    5.904000000000e+05 4.000000000000e+00
 9 19  8  3 22  0  0.0 3.560851328075e-04-8.753886504564e-12 0.000000000000e+00
    6.000000000000e+01 2.209375000000e+01 4.608406244332e-09 9.536233587206e-01
    1.039355993271e-06 1.254568225704e-03 1.147948205471e-05 5.153631471634e+03
    5.976000000000e+05-5.587935447693e-08-2.035543785963e+00-3.166496753693e-08
    9.524140740634e-01 1.540625000000e+02 1.703759520286e+00-8.042120700893e-09
    3.571577341961e-10 1.000000000000e+00 2.064000000000e+03 0.000000000000e+00
    2.400000000000e+00 0.000000000000e+00 1.396983861923e-09 6.000000000000e+01
    5.904000000000e+05 4.000000000000e+00
19 19  8  3 22  0  0.0-2.856128849089e-04 5.002220859751e-12 0.000000000000e+00
    4.000000000000e+01 1.157812500000e+02 3.904448350232e-09-3.029890104136e+00
    5.772337317467e-06 9.566414169967e-03 8.694827556610e-06 5.153646707535e+03
    5.976000000000e+05 1.005828380585e-07 1.220881777964e+00 5.587935447693e-09
    9.819893358889e-01 2.207500000000e+02 1.470763663576e+00-7.698534960597e-09
    4.135886561991e-10 1.000000000000e+00 2.064000000000e+03 0.000000000000e+00
    2.400000000000e+00 0.000000000000e+00-1.536682248116e-08 4.000000000000e+01
    5.904000000000e+05 4.000000000000e+00
12 19  8  3 22  0  0.0 2.175578847528e-04-3.637978807092e-12 0.000000000000e+00
    3.800000000000e+01-1.665625000000e+01 3.765871149364e-09-2.972763921173e+00
   -8.083879947662e-07 7.525544264354e-03 1.136772334576e-05 5.153604585648e+03
    5.976000000000e+05 8.195638656616e-08 1.415605538453e-01-3.911554813385e-08
    9.823311291431e-01 1.690312500000e+02 1.106091380026e+00-7.547100081297e-09
   -5.443083869148e-10 1.000000000000e+00 2.064000000000e+03 0.000000000000e+00
    2.400000000000e+00 0.000000000000e+00-1.257285475731e-08 3.800000000000e+01
    5.904000000000e+05 4.000000000000e+00
20 19  8  3 22  0  0.0 5.262885242701e-04 2.273736754432e-13 0.000000000000e+00
    4.000000000000e+01-1.276562500000e+02 5.372723795512e-09-2.014508072896e+00
   -6.459653377533e-06 4.629484727047e-03 7.597729563713e-06 5.153623491287e+03
    5.976000000000e+05-7.450580596924e-08 3.092070113154e+00 5.960464477539e-08
    9.316949701152e-01 2.195312500000e+02 2.400990772412e+00-8.591786453821e-09
   -3.439428980308e-10 1.000000000000e+00 2.064000000000e+03 0.000000000000e+00
    2.400000000000e+00 0.000000000000e+00-8.847564458847e-09 4.000000000000e+01
    5.904000000000e+05 4.000000000000e+00
